STARLINK-2293           
1 47863U 21021D   25087.50002315  .00321057  00000+0  16436-2 0  9991
2 47863  53.0512  13.1477 0004647  66.0220 327.9201 15.79867403223692
STARLINK-2323           
1 47868U 21021J   25087.25002315  .00836029  00000+0  14791-1 0  9999
2 47868  53.0537 322.4928 0003852  67.7250  52.0443 15.47549076224401
STARLINK-2326           
1 47870U 21021L   25087.12898657  .00012014  00000+0  82467-3 0  9997
2 47870  53.0539  42.3872 0001485 100.7646 259.3510 15.06373665223263
STARLINK-2329           
1 47873U 21021P   25087.22161689 -.00003365  00000+0 -20725-3 0  9999
2 47873  53.0560  16.9742 0001219 107.2536 252.8586 15.06382164223634
STARLINK-2330           
1 47874U 21021Q   25087.09859202  .00025298  00000+0  17113-2 0  9993
2 47874  53.0557 332.5373 0000920  74.0891 286.0199 15.06396460224242
STARLINK-2336           
1 47879U 21021V   25087.15848528  .00015128  00000+0  10326-2 0  9994
2 47879  53.0553  42.2546 0001238 106.2019 253.9106 15.06389922223271
STARLINK-2340           
1 47882U 21021Y   25087.18878216  .00066020  00000+0  21684-2 0  9994
2 47882  53.0543   8.1203 0000649  44.0997 316.0055 15.30979120223753
STARLINK-2342           
1 47883U 21021Z   25087.10410098  .00019937  00000+0  13538-2 0  9991
2 47883  53.0543  32.4991 0001223 107.0588 253.0534 15.06392605223407
STARLINK-2343           
1 47884U 21021AA  25087.08705595 -.00009920  00000+0 -64844-3 0  9998
2 47884  53.0557  37.5770 0001628  89.5827 270.5348 15.06372999223336
STARLINK-2346           
1 47887U 21021AD  25087.17183711  .00015690  00000+0  10711-2 0  9993
2 47887  53.0545  37.1943 0001286  69.5244 290.5882 15.06356414223356
STARLINK-2348           
1 47888U 21021AE  25086.91668981  .00699867  00000+0  58055-2 0  9999
2 47888  53.0542  19.2547 0002954  21.9531 228.4429 15.67519530  5687
STARLINK-2354           
1 47894U 21021AL  25087.10273120  .00018315  00000+0  12462-2 0  9990
2 47894  53.0557  27.5043 0001265 107.0937 253.0191 15.06371670223487
STARLINK-2355           
1 47895U 21021AM  25087.18013911  .00021089  00000+0  14319-2 0  9994
2 47895  53.0548  27.1584 0002055  22.3600 337.7478 15.06361851223497
STARLINK-2356           
1 47896U 21021AN  25087.10687535 -.00005089  00000+0 -32313-3 0  9995
2 47896  53.0557  42.4894 0001386  90.4663 269.6485 15.06382128223269
STARLINK-2358           
1 47898U 21021AQ  25087.10640478 -.00001220  00000+0 -63022-4 0  9997
2 47898  53.0554  27.4892 0001155  77.7975 282.3143 15.06398538223486
STARLINK-2361           
1 47901U 21021AT  25087.22528992  .00017659  00000+0  12020-2 0  9992
2 47901  53.0573  17.0448 0001123  49.9169 310.1918 15.06383307223630
STARLINK-2363           
1 47903U 21021AV  25086.96632386  .00010814  00000+0  74416-3 0  9991
2 47903  53.0566  18.1055 0001457  89.5754 270.5401 15.06378148224410
STARLINK-2364           
1 47904U 21021AW  25087.09628169  .00026388  00000+0  17852-2 0  9994
2 47904  53.0558  17.5402 0001080 102.0065 258.1045 15.06371141223623
STARLINK-2367           
1 47907U 21021AZ  25087.16815353  .00014005  00000+0  95797-3 0  9996
2 47907  53.0542  37.2119 0001162 112.3559 247.7553 15.06370679223348
STARLINK-2368           
1 47908U 21021BA  25087.10917434  .00015228  00000+0  10400-2 0  9999
2 47908  53.0544  37.4766 0001226  68.5681 291.5439 15.06363265223343
STARLINK-2370           
1 47910U 21021BC  25087.24281772  .00015968  00000+0  10896-2 0  9996
2 47910  53.0556  27.0402 0001336 107.1340 252.9795 15.06360540223502
STARLINK-2371           
1 47911U 21021BD  25087.17693379  .00013705  00000+0  93822-3 0  9997
2 47911  53.0550  42.4152 0001485  79.8080 280.3076 15.06359060223592
STARLINK-2378           
1 47916U 21021BJ  25087.08522351  .00023377  00000+0  15845-2 0  9997
2 47916  53.0565  17.5829 0001502  92.9538 267.1623 15.06367309223610
STARLINK-2405           
1 47919U 21021BM  25086.88432156  .00012142  00000+0  83263-3 0  9998
2 47919  53.0549  38.4870 0000811  59.0298 301.0771 15.06398575223769
STARLINK-1647           
1 47978U 21024B   25087.17966659 -.00005790  00000+0 -37033-3 0  9996
2 47978  53.0535  92.1606 0001519  80.7737 279.3424 15.06380819221816
STARLINK-2303           
1 47981U 21024E   25087.16859951 -.00007313  00000+0 -47265-3 0  9996
2 47981  53.0538  92.2083 0001206  88.4945 271.6182 15.06391562221815
STARLINK-2273           
1 47993U 21024S   25087.06541246 -.00003632  00000+0 -22519-3 0  9998
2 47993  53.0547  52.6717 0001737  84.5475 275.5712 15.06380314222351
STARLINK-2309           
1 47995U 21024U   25087.07809829  .00174197  00000+0  11266-1 0  9993
2 47995  53.0550  32.9316 0001581  90.7259 269.3911 15.06928879222636
STARLINK-2266           
1 47997U 21024W   25087.18381910 -.00002333  00000+0 -13785-3 0  9997
2 47997  53.0549  67.1453 0001942  90.7263 269.3948 15.06378879222161
STARLINK-2270           
1 48000U 21024Z   25087.07236027  .00034140  00000+0  23008-2 0  9996
2 48000  53.0554 357.8480 0000920  76.1752 283.9339 15.06383758223123
STARLINK-2263           
1 48003U 21024AC  25087.50002315  .01230567  00000+0  58708-1 0  9994
2 48003  53.0516  90.5459 0001041  71.3672  98.3532 15.15984569221852
STARLINK-2271           
1 48008U 21024AH  25087.50002315  .00657486  00000+0  52204-2 0  9997
2 48008  53.0551 345.3268 0001307 156.7437 186.4103 15.68722112223326
STARLINK-2153           
1 48009U 21024AJ  25087.14466304 -.00003030  00000+0 -18468-3 0  9997
2 48009  53.0525  72.3167 0001287  90.7414 269.3723 15.06392010222085
STARLINK-2226           
1 48010U 21024AK  25087.15755966  .00001562  00000+0  12374-3 0  9991
2 48010  53.0537  92.2586 0001312  82.5840 277.5299 15.06388409221802
STARLINK-2283           
1 48014U 21024AP  25087.25002315  .00713105  00000+0  41762-2 0  9994
2 48014  53.0516   9.1838 0000817  56.8811 155.9540 15.75774124222977
STARLINK-2284           
1 48016U 21024AR  25087.50002315  .00235962  00000+0  30909-2 0  9995
2 48016  53.0404 332.2679 0003923  48.0110  85.6137 15.57273943223519
STARLINK-2282           
1 48018U 21024AT  25087.50002315  .00019142  00000+0  58914-3 0  9994
2 48018  53.0337  57.6200 0008764  41.2898 318.9404 15.33663792222326
STARLINK-2285           
1 48019U 21024AU  25087.18749104 -.00002855  00000+0 -17290-3 0  9990
2 48019  53.0537  67.1211 0001549  86.5559 273.5607 15.06393501222168
STARLINK-2301           
1 48021U 21024AW  25087.10915941  .00027010  00000+0  18271-2 0  9996
2 48021  53.0545  27.4663 0001420  87.6242 272.4909 15.06362193222716
STARLINK-2298           
1 48022U 21024AX  25087.13777997  .00000363  00000+0  43251-4 0  9997
2 48022  53.0529  87.6270 0001491  83.1888 276.9271 15.06390376221866
STARLINK-2292           
1 48023U 21024AY  25087.25937415 -.00000814  00000+0 -35766-4 0  9999
2 48023  53.0530  86.8015 0001743  91.4931 268.6258 15.06394945221889
STARLINK-2264           
1 48028U 21024BD  25087.50002315  .00535684  00000+0  56391-2 0  9995
2 48028  53.0575  12.7935 0000810 158.7010  60.0309 15.62007816222940
STARLINK-2299           
1 48029U 21024BE  25087.17092302 -.00001484  00000+0 -80815-4 0  9992
2 48029  53.0546  87.2008 0001565  90.7469 269.3699 15.06380546221877
STARLINK-2286           
1 48033U 21024BJ  25086.83771787  .00515934  00000+0  17425-2 0  9993
2 48033  53.0464  73.6839 0002733 121.0208 311.0244 15.88149565222033
STARLINK-2288           
1 48034U 21024BK  25087.50002315  .01255561  00000+0  94267-2 0  9990
2 48034  53.0506  76.5725 0004137   5.6100 286.7425 15.69341350222051
STARLINK-2295           
1 48036U 21024BM  25087.50002315  .00628815  17674-3  15370-2 0  9994
2 48036  53.0450  39.8593 0002708 152.7253 321.5029 15.95617654222567
STARLINK-2404           
1 48093U 21027B   25086.55631190  .00001119  00000+0  94006-4 0  9991
2 48093  53.0547 280.1619 0002118  95.7962 264.3269 15.06403542219832
STARLINK-2412           
1 48094U 21027C   25086.83917647  .00007473  00000+0  52018-3 0  9992
2 48094  53.0523 288.6902 0001249  82.0578 278.0552 15.06389192220148
STARLINK-2414           
1 48095U 21027D   25087.24462560  .00005439  00000+0  38373-3 0  9996
2 48095  53.0556 286.8703 0001076  82.3397 277.7714 15.06403642219808
STARLINK-2417           
1 48096U 21027E   25086.95345713  .00012463  00000+0  85392-3 0  9992
2 48096  53.0534 288.1789 0002401  88.3337 271.7927 15.06408500219759
STARLINK-2418           
1 48097U 21027F   25086.86681470  .00003075  00000+0  22526-3 0  9995
2 48097  53.0538 268.5656 0000942  82.9243 277.1853 15.06392227220425
STARLINK-2421           
1 48098U 21027G   25086.91013532 -.00001448  00000+0 -78323-4 0  9991
2 48098  53.0517 278.3707 0001974  83.0927 277.0287 15.06403035219941
STARLINK-2428           
1 48099U 21027H   25086.56642689  .00003209  00000+0  23418-3 0  9993
2 48099  53.0472 289.9159 0002155 103.5032 256.6197 15.06411709219690
STARLINK-2430           
1 48100U 21027J   25086.79310247  .00002151  00000+0  16321-3 0  9993
2 48100  53.0500 268.8938 0002469  95.7866 264.3404 15.06409177220416
STARLINK-2436           
1 48101U 21027K   25087.26032418  .00001700  00000+0  13298-3 0  9997
2 48101  53.0499 276.9994 0001985  96.1584 263.9631 15.06400279219947
STARLINK-2437           
1 48102U 21027L   25086.88525238 -.00001042  00000+0 -51102-4 0  9990
2 48102  53.0539 268.4809 0001278  88.7487 271.3649 15.06396598220029
STARLINK-2439           
1 48104U 21027N   25087.23681273  .00003747  00000+0  27045-3 0  9994
2 48104  53.0560 271.9038 0001838  77.6830 282.4365 15.06385044220010
STARLINK-2440           
1 48105U 21027P   25086.74610236  .00019103  00000+0  12983-2 0  9998
2 48105  53.0509 219.1069 0001429  82.2146 277.9005 15.06388285221101
STARLINK-2442           
1 48106U 21027Q   25086.79678908 -.00000450  00000+0 -11287-4 0  9999
2 48106  53.0558 268.8907 0001295  85.7465 274.3672 15.06402175220410
